{
  "links" : {
    "next" : "https://api.nasa.gov/neo/rest/v1/feed?start_date=1995-10-09&end_date=1995-10-09&detailed=true&api_key=t0TVs3DtDT2H8Oy2Zy8m2eVrNsAVKAexjcZXUckd",
    "prev" : "https://api.nasa.gov/neo/rest/v1/feed?start_date=1995-10-07&end_date=1995-10-07&detailed=true&api_key=t0TVs3DtDT2H8Oy2Zy8m2eVrNsAVKAexjcZXUckd",
    "self" : "https://api.nasa.gov/neo/rest/v1/feed?start_date=1995-10-08&end_date=1995-10-08&detailed=true&api_key=t0TVs3DtDT2H8Oy2Zy8m2eVrNsAVKAexjcZXUckd"
  },
  "element_count" : 6,
  "near_earth_objects" : {
    "1995-10-08" : [ {
      "links" : {
        "self" : "https://api.nasa.gov/neo/rest/v1/neo/3601472?api_key=t0TVs3DtDT2H8Oy2Zy8m2eVrNsAVKAexjcZXUckd"
      },
      "neo_reference_id" : "3601472",
      "name" : "(2012 FR1)",
      "nasa_jpl_url" : "http://ssd.jpl.nasa.gov/sbdb.cgi?sstr=3601472",
      "absolute_magnitude_h" : 19.1,
      "estimated_diameter" : {
        "kilometers" : {
          "estimated_diameter_min" : 0.4023045798,
          "estimated_diameter_max" : 0.8995803882
        },
        "meters" : {
          "estimated_diameter_min" : 402.3045798343,
          "estimated_diameter_max" : 899.5803881691
        },
        "miles" : {
          "estimated_diameter_min" : 0.2499803991,
          "estimated_diameter_max" : 0.5589731654
        },
        "feet" : {
          "estimated_diameter_min" : 1319.8969577037,
          "estimated_diameter_max" : 2951.3793207207
        }
      },
      "is_potentially_hazardous_asteroid" : true,
      "close_approach_data" : [ {
        "close_approach_date" : "1995-10-08",
        "epoch_date_close_approach" : 813135600000,
        "relative_velocity" : {
          "kilometers_per_second" : "15.4776155215",
          "kilometers_per_hour" : "55719.4158773802",
          "miles_per_hour" : "34621.878160031"
        },
        "miss_distance" : {
          "astronomical" : "0.2088703977",
          "lunar" : "81.2505874634",
          "kilometers" : "31246566",
          "miles" : "19415716"
        },
        "orbiting_body" : "Earth"
      } ],
      "orbital_data" : {
        "orbit_id" : "20",
        "orbit_determination_date" : "2017-04-06 08:50:26",
        "orbit_uncertainty" : "1",
        "minimum_orbit_intersection" : ".00672532",
        "jupiter_tisserand_invariant" : "3.275",
        "epoch_osculation" : "2458000.5",
        "eccentricity" : ".7119507498168253",
        "semi_major_axis" : "2.176240135386807",
        "inclination" : "13.30368650062958",
        "ascending_node_longitude" : "355.4787924280728",
        "orbital_period" : "1172.623653188909",
        "perihelion_distance" : ".6268643392167003",
        "perihelion_argument" : "86.23064422521149",
        "aphelion_distance" : "3.725615931556913",
        "perihelion_time" : "2458259.957124394224",
        "mean_anomaly" : "280.3456586195321",
        "mean_motion" : ".3070038703560113",
        "equinox" : "J2000"
      }
    }, {
      "links" : {
        "self" : "https://api.nasa.gov/neo/rest/v1/neo/3666677?api_key=t0TVs3DtDT2H8Oy2Zy8m2eVrNsAVKAexjcZXUckd"
      },
      "neo_reference_id" : "3666677",
      "name" : "(2014 FR37)",
      "nasa_jpl_url" : "http://ssd.jpl.nasa.gov/sbdb.cgi?sstr=3666677",
      "absolute_magnitude_h" : 22.8,
      "estimated_diameter" : {
        "kilometers" : {
          "estimated_diameter_min" : 0.0732073989,
          "estimated_diameter_max" : 0.1636967205
        },
        "meters" : {
          "estimated_diameter_min" : 73.2073989347,
          "estimated_diameter_max" : 163.696720474
        },
        "miles" : {
          "estimated_diameter_min" : 0.0454889547,
          "estimated_diameter_max" : 0.1017163949
        },
        "feet" : {
          "estimated_diameter_min" : 240.181762721,
          "estimated_diameter_max" : 537.0627483999
        }
      },
      "is_potentially_hazardous_asteroid" : false,
      "close_approach_data" : [ {
        "close_approach_date" : "1995-10-08",
        "epoch_date_close_approach" : 813135600000,
        "relative_velocity" : {
          "kilometers_per_second" : "10.3538812075",
          "kilometers_per_hour" : "37273.9723469384",
          "miles_per_hour" : "23160.5968730185"
        },
        "miss_distance" : {
          "astronomical" : "0.1029365356",
          "lunar" : "40.0423126221",
          "kilometers" : "15399087",
          "miles" : "9568549"
        },
        "orbiting_body" : "Earth"
      } ],
      "orbital_data" : {
        "orbit_id" : "13",
        "orbit_determination_date" : "2017-04-06 08:41:54",
        "orbit_uncertainty" : "6",
        "minimum_orbit_intersection" : ".0224851",
        "jupiter_tisserand_invariant" : "5.303",
        "epoch_osculation" : "2458000.5",
        "eccentricity" : ".2706344259804053",
        "semi_major_axis" : "1.185402267868303",
        "inclination" : "6.072461617563961",
        "ascending_node_longitude" : "10.38189097684688",
        "orbital_period" : "471.4081184471361",
        "perihelion_distance" : ".8645916055478944",
        "perihelion_argument" : "81.31956727808232",
        "aphelion_distance" : "1.506212930188712",
        "perihelion_time" : "2458069.779860798994",
        "mean_anomaly" : "307.093083653724",
        "mean_motion" : ".7636694955230614",
        "equinox" : "J2000"
      }
    }, {
      "links" : {
        "self" : "https://api.nasa.gov/neo/rest/v1/neo/3730802?api_key=t0TVs3DtDT2H8Oy2Zy8m2eVrNsAVKAexjcZXUckd"
      },
      "neo_reference_id" : "3730802",
      "name" : "(2015 TT238)",
      "nasa_jpl_url" : "http://ssd.jpl.nasa.gov/sbdb.cgi?sstr=3730802",
      "absolute_magnitude_h" : 24.5,
      "estimated_diameter" : {
        "kilometers" : {
          "estimated_diameter_min" : 0.0334622374,
          "estimated_diameter_max" : 0.0748238376
        },
        "meters" : {
          "estimated_diameter_min" : 33.4622374455,
          "estimated_diameter_max" : 74.8238376074
        },
        "miles" : {
          "estimated_diameter_min" : 0.0207924639,
          "estimated_diameter_max" : 0.0464933628
        },
        "feet" : {
          "estimated_diameter_min" : 109.7842471007,
          "estimated_diameter_max" : 245.4850393757
        }
      },
      "is_potentially_hazardous_asteroid" : false,
      "close_approach_data" : [ {
        "close_approach_date" : "1995-10-08",
        "epoch_date_close_approach" : 813135600000,
        "relative_velocity" : {
          "kilometers_per_second" : "7.0350792638",
          "kilometers_per_hour" : "25326.2853496968",
          "miles_per_hour" : "15736.7688052047"
        },
        "miss_distance" : {
          "astronomical" : "0.1168503547",
          "lunar" : "45.454788208",
          "kilometers" : "17480564",
          "miles" : "10861919"
        },
        "orbiting_body" : "Earth"
      } ],
      "orbital_data" : {
        "orbit_id" : "9",
        "orbit_determination_date" : "2017-04-06 08:31:14",
        "orbit_uncertainty" : "6",
        "minimum_orbit_intersection" : ".025176",
        "jupiter_tisserand_invariant" : "6.661",
        "epoch_osculation" : "2458000.5",
        "eccentricity" : ".2499222400619662",
        "semi_major_axis" : ".8855456744457496",
        "inclination" : "10.80071330359576",
        "ascending_node_longitude" : "4.523783599081487",
        "orbital_period" : "304.3791331885978",
        "perihelion_distance" : ".6642281158110832",
        "perihelion_argument" : "216.088514827759",
        "aphelion_distance" : "1.106863233080416",
        "perihelion_time" : "2458096.540595714589",
        "mean_anomaly" : "246.4093799891688",
        "mean_motion" : "1.182735479363294",
        "equinox" : "J2000"
      }
    } ]
  }
}